#aV2010  5 21  0  0   .00000000      96 DD+AD WGS84 FIT  NGA
## 1584 432000.00000000   900.00000000 55337  .0000000000000
+   30     1  2  3  4  5  6  7  8  9 10 11 12 13 14 15 16 17
+         18 19 20 21 22 23 24 26 27 28 29 30 31  0  0  0  0
+          0  0  0  0  0  0  0  0  0  0  0  0  0  0  0  0  0
+          0  0  0  0  0  0  0  0  0  0  0  0  0  0  0  0  0
+          0  0  0  0  0  0  0  0  0  0  0  0  0  0  0  0  0
++         0  0  0  0  0  0  0  0  0  0  0  0  0  0  0  0  0
++         0  0  0  0  0  0  0  0  0  0  0  0  0  0  0  0  0
++         0  0  0  0  0  0  0  0  0  0  0  0  0  0  0  0  0
++         0  0  0  0  0  0  0  0  0  0  0  0  0  0  0  0  0
++         0  0  0  0  0  0  0  0  0  0  0  0  0  0  0  0  0
%c cc cc ccc ccc cccc cccc cccc cccc ccccc ccccc ccccc ccccc
%c cc cc ccc ccc cccc cccc cccc cccc ccccc ccccc ccccc ccccc
%f  0.0000000  0.000000000  0.00000000000  0.000000000000000
%f  0.0000000  0.000000000  0.00000000000  0.000000000000000
%i    0    0    0    0      0      0      0      0         0
%i    0    0    0    0      0      0      0      0         0
/*      NGA, ST. LOUIS,MO.                                  
/*   EPHEMERIS COMPUTED FROM  3 DAYS OF DATA                
/* CCCCCCCCCCCCCCCCCCCCCCCCCCCCCCCCCCCCCCCCCCCCCCCCCCCCCCCCC
/* CCCCCCCCCCCCCCCCCCCCCCCCCCCCCCCCCCCCCCCCCCCCCCCCCCCCCCCCC
*  2010  5 21  9 15   .00000000                                                 
P  1 -13475.602374   6805.450392  21747.366890   -122.187785                    
V  1 -11217.933606 -25499.679005   1167.000029      -.040437                    
P  2   7965.028080 -14399.162238  20742.805528    257.592128                    
V  2  26308.267174   3831.645999  -7890.142733       .034332                    
P  3  -7942.623544  24274.757750  -6963.019734    557.857536                    
V  3  -7622.973937   5426.452065  29483.113479       .049969                    
P  4  22103.059510  -6963.233037  13122.914628     86.603481                    
V  4  16416.233994   4596.292895 -24529.332785       .083004                    
P  5    181.739879 -22989.342689  13210.182841     -3.730345                    
V  5   8836.571121  14528.894443  25210.050691      -.012261                    
P  6 -12851.783752  22943.233648  -2924.257723    633.408655                    
V  6  -5339.429234   1179.328485  30952.571957      -.114436                    
P  7  25403.005875   6455.621733   4814.324315      -.638268                    
V  7  -6325.388887   1511.600571  31107.971698      -.002634                    
P  8  25743.977726    -68.121114  -7594.912387      5.455724                    
V  8   9048.234507   3027.248600  30189.633669       .001609                    
P  9 -10637.710870 -14499.666934 -20106.410496      7.806763                    
V  9  24250.715974   1418.407273 -14199.318377       .022086                    
P 10   8105.603067 -16210.250096  19109.049291    -43.000243                    
V 10  10744.984329  22410.111527  14655.284862      -.006967                    
P 11  15996.473698  12516.058480 -17542.442506    -63.892807                    
V 11 -21517.168202   4921.822881 -15985.300391      -.023622                    
P 12 -12165.793694 -23491.758162   3224.921456   -112.995078                    
V 12    618.667907  -4603.035778 -31528.435012       .042608                    
P 13  14062.916750   5412.166600  21736.105852    304.214482                    
V 13 -17932.580392  21303.105042   6227.413960      -.003737                    
P 14 -20197.441997  13194.561429 -10826.785076     48.019590                    
V 14   7435.385898 -11965.844251 -28226.696604       .043750                    
P 15   2280.446229 -21578.592899 -15225.517915   -269.628064                    
V 15  13208.383994 -14414.587095  22503.599549       .059866                    
P 16  -5093.527010  19340.583914  17376.676930    -73.594150                    
V 16  -9657.731817 -19904.658653  19641.700884      -.037431                    
P 17  20183.176673 -12244.626943 -11853.610829    152.051569                    
V 17  -7429.493212  13614.768304 -26686.578974       .023249                    
P 18 -17541.735503 -10759.645720 -16724.786664     69.593817                    
V 18  -6166.793464 -20879.991166  19207.617592       .024417                    
P 19  -2850.045321  20610.697359 -16294.140419    -36.453360                    
V 19 -15390.623669  14278.653887  21013.941271      -.026977                    
P 20  14177.006167  21916.500145   4917.210383     55.813287                    
V 20   -404.995916   7274.683771 -30363.586191      -.005473                    
P 21 -26518.802070  -4464.979164   1233.078491    -61.603039                    
V 21   1555.733200  -2959.343190  30665.715422      -.025692                    
P 22 -15654.425915   2773.827456 -21122.371772    171.608948                    
V 22  -9660.970058 -25524.823392   3688.300850      -.010148                    
P 23   8238.587689  13405.973840  21322.003253    370.054868                    
V 23 -17043.012733  21174.644934  -7029.332728      -.013804                    
P 24 -24750.604734   2241.506126  -8971.334813    289.207935                    
V 24 -10895.542018  -5024.852695  28773.015044       .033853                    
P 26  -4383.710087 -16113.955450 -21073.069952    -54.770794                    
V 26  17227.877365 -18919.740442  11595.559953      -.051840                    
P 27  -7476.620540 -14296.167967 -20452.930683    153.877703                    
V 27  27448.467672   1055.569033 -10280.702335       .034181                    
P 28  15649.259522    548.663912 -21022.161608    -15.683969                    
V 28   9522.954533  26052.666024   7320.625837       .009508                    
P 29 -14397.846742  -6141.451688  21549.123635    121.402926                    
V 29  16592.435009 -21487.367224   5024.248241       .028205                    
P 30 -17135.796511 -16107.186430  12002.328171    244.615860                    
V 30  -4575.480858 -15386.007156 -26265.246638       .035097                    
P 31 -20055.101961   8199.604079  15688.637483    -35.396499                    
V 31 -19117.283740  -3820.846037 -22569.315356       .020466                    
EOF
